[{"OBJECT_NAME":"GONETS-M 25","OBJECT_ID":"2022-139C","EPOCH":"2026-03-09T23:16:09.461280","MEAN_MOTION":12.42886276,"ECCENTRICITY":0.00218229,"INCLINATION":82.5027,"RA_OF_ASC_NODE":49.7027,"ARG_OF_PERICENTER":86.5744,"MEAN_ANOMALY":273.7831,"EPHEMERIS_TYPE":0,"CLASSIFICATION_TYPE":"U","NORAD_CAT_ID":54152,"ELEMENT_SET_NO":999,"REV_AT_EPOCH":15332,"BSTAR":0.00010254887,"MEAN_MOTION_DOT":2.4e-7,"MEAN_MOTION_DDOT":0},{"OBJECT_NAME":"THORAD DELTA 1 DEB","OBJECT_ID":"1974-089AX","EPOCH":"2026-03-09T21:36:03.069792","MEAN_MOTION":12.40336551,"ECCENTRICITY":0.00689287,"INCLINATION":101.6798,"RA_OF_ASC_NODE":179.3364,"ARG_OF_PERICENTER":188.6579,"MEAN_ANOMALY":295.2496,"EPHEMERIS_TYPE":0,"CLASSIFICATION_TYPE":"U","NORAD_CAT_ID":8181,"ELEMENT_SET_NO":999,"REV_AT_EPOCH":32206,"BSTAR":0.00066025052,"MEAN_MOTION_DOT":4.6e-7,"MEAN_MOTION_DDOT":0}]
